LIME                    
1 62648U 25009AR  26068.73906781  .00013254  00000+0  47723-3 0  9995
2 62648  97.3985 151.4831 0001635  35.9029 324.2320 15.28703313 63766
STARLINK-34292          
1 64390U 25127W   26067.63461362  .00040724  00000+0  14807-2 0  9999
2 64390  43.0007 185.9187 0002143 286.8262  73.2355 15.27591666 42303
